CELTEE 1                
1 41850U 16067C   18068.21667611 -.00000351  00000-0 -25384-4 0  9998
2 41850  97.9267 155.1132 0009742 131.3544 228.8516 14.96755653 72148
OPTICUBE 04             
1 41851U 16067D   18068.30652233  .00000315  00000-0  32933-4 0  9999
2 41851  97.9260 155.1440 0010089 133.0987 227.1080 14.96625647 72158
AEROCUBE 8D             
1 41852U 16067E   18068.46451869  .00000385  00000-0  39281-4 0  9999
2 41852  97.9283 155.1605 0010919 131.0103 229.2063 14.96429336 72169
AEROCUBE 8C             
1 41853U 16067F   18068.47627190 -.00000238  00000-0 -15656-4 0  9992
2 41853  97.9281 155.1421 0011059 132.6974 227.5180 14.96392037 72161
PROMETHEUS 2-1          
1 41854U 16067G   18068.48855487  .00000006  00000-0  58999-5 0  9995
2 41854  97.9281 155.1423 0011353 133.8980 226.3180 14.96456591 72164
PROMETHEUS 2-3          
1 41855U 16067H   18068.29041979  .00000077  00000-0  12160-4 0  9995
2 41855  97.9281 154.9436 0011528 135.0920 225.1235 14.96453511 72132
ITF-2                   
1 41932U 98067KU  18068.58050664  .00021609  00000-0  17835-3 0  9991
2 41932  51.6370 131.8178 0002630 170.8960 189.2085 15.70263891 65088
WASEDA-SAT3             
1 41933U 98067KV  18068.54173644  .00030688  00000-0  21901-3 0  9998
2 41933  51.6336 128.4642 0001724 171.9479 188.1548 15.73508020 65125
AOBA-VELOX 3            
1 41935U 98067KX  18068.52823228  .00028049  00000-0  21118-3 0  9996
2 41935  51.6360 129.9357 0001669 170.0818 190.0214 15.72297358 65207
INS-1B                  
1 41954U 17008G   18068.57618158  .00001185  00000-0  53848-4 0  9990
2 41954  97.4582 133.3352 0009059 353.0156   7.0953 15.22706763 58844
BGUSAT                  
1 41999U 17008BD  18068.58147076  .00001945  00000-0  82957-4 0  9993
2 41999  97.4622 134.1143 0008581  12.8885 347.2570 15.24114157 58254
DIDO-2                  
1 42000U 17008BE  18068.59825532  .00000824  00000-0  38080-4 0  9991
2 42000  97.4601 133.7311 0008890  12.8571 347.2890 15.22973515 58245
PEASSS                  
1 42015U 17008BV  18068.56254067  .00001141  00000-0  50458-4 0  9999
2 42015  97.4596 134.0382 0007030  23.5909 336.5649 15.23732436 58749
AL-FARABI 1             
1 42016U 17008BW  18068.57996391  .00001357  00000-0  58854-4 0  9991
2 42016  97.4602 134.1862 0006895  24.2534 335.9026 15.24077977 58871
NAYIF-1 (EO-88)         
1 42017U 17008BX  18068.57571217  .00001385  00000-0  59969-4 0  9997
2 42017  97.4600 134.1875 0006891  24.5118 335.6445 15.24099595 58895
HAVELSAT                
1 42700U 98067LH  18068.76255572  .00018894  00000-0  18598-3 0  9999
2 42700  51.6366 141.2737 0003488 247.9019 112.1606 15.66016952 46415
SGSAT                   
1 42703U 98067LL  18068.63054100  .00099907  00000-0  49544-3 0  9991
2 42703  51.6329 131.2536 0002664  19.6294 340.4811 15.81197739 46444
CXBN-2                  
1 42704U 98067LM  18068.56746867  .00018482  00000-0  18502-3 0  9991
2 42704  51.6373 142.9802 0000870 133.3892 226.7176 15.65612029 46293
ICECUBE                 
1 42705U 98067LN  18068.79621413  .00036938  00000-0  30805-3 0  9992
2 42705  51.6408 138.5578 0000938 116.4324 243.6770 15.69699315 46432
PHOENIX                 
1 42706U 98067LP  18068.82261768  .00015885  00000-0  16330-3 0  9995
2 42706  51.6364 141.6786 0000270 119.5273 240.5749 15.65068575 46320
X-CUBESAT               
1 42707U 98067LQ  18068.76721694  .00019231  00000-0  18791-3 0  9990
2 42707  51.6342 141.2716 0000212  64.1815 295.9202 15.66190547 46312
QBEE50-LTU-OC           
1 42708U 98067LR  18068.67148103  .00018501  00000-0  18437-3 0  9995
2 42708  51.6365 142.1531 0000186  96.1380 263.9637 15.65724768 46252
ALTAIR PATHFINDER       
1 42711U 98067LS  18068.58332430  .00010672  00000-0  12720-3 0  9997
2 42711  51.6367 146.8274 0003334 158.8916 201.2216 15.61679482 45897
SHARC                   
1 42712U 98067LT  18068.59954635  .00009583  00000-0  11962-3 0  9992
2 42712  51.6385 147.7215 0001768 160.5771 199.5290 15.60605667 46122
ZA-AEROSAT              
1 42713U 98067LU  18068.64651532  .00014454  00000-0  15574-3 0  9995
2 42713  51.6356 144.2446 0001473 135.2651 224.8463 15.63958614 45936
LINK                    
1 42714U 98067LV  18068.56770552  .00032737  00000-0  27262-3 0  9992
2 42714  51.6326 139.9103 0000945  85.1652 274.9453 15.69795453 46091
CSUNSAT 1               
1 42715U 98067LW  18068.75715719  .00016405  00000-0  17385-3 0  9997
2 42715  51.6369 143.4934 0003061 147.3281 212.7904 15.64265242 45950
SPACECUBE               
1 42717U 98067LY  18068.63062175  .00019176  00000-0  19151-3 0  9998
2 42717  51.6353 142.6306 0002279 255.1287 104.9456 15.65643569 45321
HOOPOE                  
1 42718U 98067LZ  18068.78673209  .00022245  00000-0  20970-3 0  9993
2 42718  51.6362 140.6759 0002017 259.4684 100.6085 15.66981650 45362
CHALLENGER              
1 42721U 98067MA  18068.66840909  .00043038  00000-0  32257-3 0  9991
2 42721  51.6334 137.5802 0002768 243.0897 116.9818 15.72182679 45092
NJUST-1                 
1 42722U 98067MB  18068.65477973  .00013672  00000-0  15155-3 0  9997
2 42722  51.6367 145.0572 0004926 220.2279 139.8351 15.63278325 44994
UNSW-ECO                
1 42723U 98067MC  18068.75250531  .00026891  00000-0  24990-3 0  9992
2 42723  51.6374 141.2138 0003724 226.6680 133.4007 15.67211407 45036
LILACSAT-1              
1 42725U 98067ME  18068.69275391  .00018666  00000-0  19377-3 0  9992
2 42725  51.6366 143.8107 0003762 225.8357 134.2329 15.64681961 44912
NSIGHT-1                
1 42726U 98067MF  18068.68387062  .00007106  00000-0  93051-4 0  9990
2 42726  51.6388 148.2792 0004950 221.3240 138.7379 15.59807935 44861
SNUSAT-1                
1 42727U 98067MG  18068.76218966  .00018188  00000-0  18941-3 0  9992
2 42727  51.6351 143.4909 0005324 178.4270 181.6743 15.64614808 44896
I-INSPIRE II            
1 42731U 98067ML  18068.77855561  .00026119  00000-0  23808-3 0  9997
2 42731  51.6353 140.5939 0003994 159.5258 200.5899 15.67706313 44823
POLYITAN-2-SAU          
1 42732U 98067MM  18068.76143207  .00020718  00000-0  20318-3 0  9996
2 42732  51.6360 141.9942 0004593 159.5749 200.5431 15.66037332 44809
SNUSAT-1B               
1 42733U 98067MN  18068.77164503  .00016743  00000-0  17143-3 0  9995
2 42733  51.6363 142.8199 0004820 164.1859 195.9288 15.65117545 44793
EXALTA-1                
1 42734U 98067MP  18068.65553870  .00028936  00000-0  26252-3 0  9990
2 42734  51.6340 141.2668 0004740 194.6216 165.4644 15.67758543 44754
BEEAGLESAT              
1 42736U 98067MR  18068.63926268  .00017102  00000-0  18015-3 0  9996
2 42736  51.6357 144.1851 0005046 216.5510 143.5141 15.64376152 44827
ATLANTIS                
1 42737U 98067MS  18068.60236583  .00237110  32344-4  68222-3 0  9996
2 42737  51.6233 127.1797 0005040  11.2093 348.9025 15.92637252 44937
UCLSAT                  
1 42765U 17036A   18068.12627072  .00001125  00000-0  52880-4 0  9997
2 42765  97.4139 129.5371 0013472  70.7239 289.5453 15.21564661 40087
LITUANICASAT-2          
1 42768U 17036D   18068.60720164  .00001872  00000-0  87437-4 0  9994
2 42768  97.4150 129.6764 0017265  59.1598 301.1334 15.20922638 39429
AALTO-1                 
1 42775U 17036L   18068.60450201  .00000773  00000-0  38356-4 0  9999
2 42775  97.4135 129.6622 0015657  57.2264 303.0477 15.20554109 39361
URSA MAIOR              
1 42776U 17036M   18068.59576314  .00000803  00000-0  39662-4 0  9997
2 42776  97.4140 129.6858 0015508  57.5915 302.6818 15.20620509 39362
COMPASS 2               
1 42777U 17036N   18068.11564547  .00001392  00000-0  65072-4 0  9999
2 42777  97.4158 129.4505 0014516  63.0367 297.2349 15.21363643 39294
DIAMOND RED             
1 42783U 17036U   18068.23242106  .00000929  00000-0  44639-4 0  9994
2 42783  97.4141 129.5522 0014064  70.1409 290.1341 15.21231592 39311
PEGASUS                 
1 42784U 17036V   18068.61206778  .00001068  00000-0  50602-4 0  9994
2 42784  97.4142 129.9653 0013991  69.1010 291.1723 15.21392732 39371
DIAMOND GREEN           
1 42785U 17036W   18068.29730217  .00000795  00000-0  38623-4 0  9994
2 42785  97.4142 129.6259 0013972  70.5239 289.7505 15.21233844 39390
DIAMOND BLUE            
1 42786U 17036X   18068.82263501  .00000881  00000-0  42487-4 0  9990
2 42786  97.4142 130.1439 0013781  69.1290 291.1420 15.21231667 39391
NUDTSAT                 
1 42787U 17036Y   18068.23544444  .00001557  00000-0  71417-4 0  9990
2 42787  97.4147 129.7097 0013554  70.4966 289.7732 15.21848859 39165
SUCHAI                  
1 42788U 17036Z   18068.58541798  .00001251  00000-0  58405-4 0  9991
2 42788  97.4143 129.9991 0013596  69.3079 290.9613 15.21615310 39442
SKCUBE                  
1 42789U 17036AA  18068.58305251  .00001167  00000-0  54691-4 0  9993
2 42789  97.4140 129.9980 0013445  69.4032 290.8645 15.21598934 39368
VZLUSAT-1               
1 42790U 17036AB  18068.22639792  .00001472  00000-0  67639-4 0  9991
2 42790  97.4143 129.7089 0013124  70.9710 289.2946 15.21877524 39311
ROBUSTA-1B              
1 42792U 17036AD  18068.29779210  .00001182  00000-0  55136-4 0  9997
2 42792  97.4139 129.7602 0013037  71.3564 288.9086 15.21736258 39335
CICERO 6                
1 42793U 17036AE  18068.61350572  .00000743  00000-0  35879-4 0  9994
2 42793  97.4134 130.0927 0012191  71.4329 288.8230 15.21674163 39455
D-SAT                   
1 42794U 17036AF  18068.70870784  .00000344  00000-0  35899-4 0  9996
2 42794  97.6054 127.0575 0125808 253.0043 105.7358 14.90794000 38900
TOKI                    
1 42820U 98067MU  18068.59021763  .00015683  00000-0  17131-3 0  9991
2 42820  51.6360 146.1110 0002250 129.3109 230.8086 15.63529921 38277
MAZAALAI (NUMSAT-1)     
1 42822U 98067MW  18068.60895500  .00016074  00000-0  17673-3 0  9999
2 42822  51.6360 146.2389 0002141 136.1699 223.9465 15.63341377 38256
